DIRECTV 11              
1 32729U 08013A   26062.63812101 -.00000140  00000+0  00000+0 0  9997
2 32729   0.0182 323.9886 0000239 359.4927 328.4372  1.00270982 44532
GALAXY 18 (G-18)        
1 32951U 08024A   26062.63344098  .00000000  00000+0  00000+0 0  9995
2 32951   0.0241 164.4746 0003156 200.2013 261.7732  1.00270562 44799
INTELSAT 25 (IS-25)     
1 33153U 08034A   26062.79420851 -.00000237  00000+0  00000+0 0  9993
2 33153   2.4359  81.6270 0003782 243.5071  90.8186  1.00270506 64638
GALAXY 19 (G-19)        
1 33376U 08045A   26062.56722729 -.00000153  00000+0  00000+0 0  9993
2 33376   0.0516 266.0119 0003108  88.6651 273.8319  1.00271866 63842
FM-5                    
1 35493U 09034A   26062.64072102 -.00000214  00000+0  00000+0 0  9994
2 35493   0.0417 276.2891 0000938 315.7940  73.8032  1.00269986 45588
INTELSAT 14 (IS-14)     
1 36097U 09064A   26062.79152183 -.00000287  00000+0  00000+0 0  9992
2 36097   0.0186  94.6722 0002580 262.5565  44.2546  1.00271422 59545
INTELSAT 15 (IS-15)     
1 36106U 09067A   26062.70808463 -.00000198  00000+0  00000+0 0  9997
2 36106   0.0183 237.3842 0002410 115.2063 148.9188  1.00270083 40176
DIRECTV 12              
1 36131U 09075A   26062.63742767 -.00000118  00000+0  00000+0 0  9992
2 36131   0.0178 330.6769 0000337  39.0982 278.3737  1.00271974 45490
INTELSAT 16 (IS-16)     
1 36397U 10006A   26062.78519512  .00000000  00000+0  00000+0 0  9997
2 36397   0.0244 132.1539 0002028 224.0062  11.8671  1.00268091 58590
XM-5                    
1 37185U 10053A   26062.70632804 -.00000037  00000+0  00000+0 0  9998
2 37185   0.0687 274.6796 0003269 254.0787 131.7687  1.00269886 56421
INTELSAT 17 (IS-17)     
1 37238U 10065B   26062.76627539 -.00000015  00000+0  00000+0 0  9991
2 37238   0.0241 203.3466 0002414 148.0627 151.9509  1.00270002 52194
INTELSAT 28 (IS-28)     
1 37392U 11016A   26062.79420851 -.00000238  00000+0  00000+0 0  9997
2 37392   1.5338  83.9913 0004656 257.7743  73.9860  1.00272709 52227
INTELSAT 18 (IS-18)     
1 37834U 11056A   26062.67392001  .00000039  00000+0  00000+0 0  9992
2 37834   0.0372 268.0748 0002020  67.5706 248.3693  1.00272848 52755
INTELSAT 22 (IS-22)     
1 38098U 12011A   26062.76755153 -.00000073  00000+0  00000+0 0  9997
2 38098   0.0224 225.5130 0001576 138.8705 145.5646  1.00273632  6132
INTELSAT 19 (IS-19)     
1 38356U 12030A   26062.76196832  .00000000  00000+0  00000+0 0  9997
2 38356   0.0252 150.8790 0003155 208.9049 242.0651  1.00269987 49399
INTELSAT 20 (IS-20)     
1 38740U 12043A   26062.65300797 -.00000038  00000+0  00000+0 0  9995
2 38740   0.0216 132.1650 0002282  30.5691 302.2468  1.00270147 49694
INTELSAT 21 (IS-21)     
1 38749U 12045A   26062.78892181 -.00000299  00000+0  00000+0 0  9992
2 38749   0.0372 266.6294 0001775  80.9141  40.0089  1.00270898 49462
