[{"OBJECT_NAME":"DIRECTV 11","OBJECT_ID":"2008-013A","EPOCH":"2026-03-03T15:18:53.655264","MEAN_MOTION":1.00270982,"ECCENTRICITY":2.39e-5,"INCLINATION":0.0182,"RA_OF_ASC_NODE":323.9886,"ARG_OF_PERICENTER":359.4927,"MEAN_ANOMALY":328.4372,"EPHEMERIS_TYPE":0,"CLASSIFICATION_TYPE":"U","NORAD_CAT_ID":32729,"ELEMENT_SET_NO":999,"REV_AT_EPOCH":4453,"BSTAR":0,"MEAN_MOTION_DOT":-1.4e-6,"MEAN_MOTION_DDOT":0},{"OBJECT_NAME":"GALAXY 18 (G-18)","OBJECT_ID":"2008-024A","EPOCH":"2026-03-03T15:12:09.300672","MEAN_MOTION":1.00270562,"ECCENTRICITY":0.0003156,"INCLINATION":0.0241,"RA_OF_ASC_NODE":164.4746,"ARG_OF_PERICENTER":200.2013,"MEAN_ANOMALY":261.7732,"EPHEMERIS_TYPE":0,"CLASSIFICATION_TYPE":"U","NORAD_CAT_ID":32951,"ELEMENT_SET_NO":999,"REV_AT_EPOCH":4479,"BSTAR":0,"MEAN_MOTION_DOT":0,"MEAN_MOTION_DDOT":0},{"OBJECT_NAME":"INTELSAT 25 (IS-25)","OBJECT_ID":"2008-034A","EPOCH":"2026-03-03T19:03:39.615264","MEAN_MOTION":1.00270506,"ECCENTRICITY":0.0003782,"INCLINATION":2.4359,"RA_OF_ASC_NODE":81.627,"ARG_OF_PERICENTER":243.5071,"MEAN_ANOMALY":90.8186,"EPHEMERIS_TYPE":0,"CLASSIFICATION_TYPE":"U","NORAD_CAT_ID":33153,"ELEMENT_SET_NO":999,"REV_AT_EPOCH":6463,"BSTAR":0,"MEAN_MOTION_DOT":-2.37e-6,"MEAN_MOTION_DDOT":0},{"OBJECT_NAME":"GALAXY 19 (G-19)","OBJECT_ID":"2008-045A","EPOCH":"2026-03-03T13:36:48.437856","MEAN_MOTION":1.00271866,"ECCENTRICITY":0.0003108,"INCLINATION":0.0516,"RA_OF_ASC_NODE":266.0119,"ARG_OF_PERICENTER":88.6651,"MEAN_ANOMALY":273.8319,"EPHEMERIS_TYPE":0,"CLASSIFICATION_TYPE":"U","NORAD_CAT_ID":33376,"ELEMENT_SET_NO":999,"REV_AT_EPOCH":6384,"BSTAR":0,"MEAN_MOTION_DOT":-1.53e-6,"MEAN_MOTION_DDOT":0},{"OBJECT_NAME":"FM-5","OBJECT_ID":"2009-034A","EPOCH":"2026-03-03T15:22:38.296128","MEAN_MOTION":1.00269986,"ECCENTRICITY":9.38e-5,"INCLINATION":0.0417,"RA_OF_ASC_NODE":276.2891,"ARG_OF_PERICENTER":315.794,"MEAN_ANOMALY":73.8032,"EPHEMERIS_TYPE":0,"CLASSIFICATION_TYPE":"U","NORAD_CAT_ID":35493,"ELEMENT_SET_NO":999,"REV_AT_EPOCH":4558,"BSTAR":0,"MEAN_MOTION_DOT":-2.14e-6,"MEAN_MOTION_DDOT":0},{"OBJECT_NAME":"INTELSAT 14 (IS-14)","OBJECT_ID":"2009-064A","EPOCH":"2026-03-03T18:59:47.486112","MEAN_MOTION":1.00271422,"ECCENTRICITY":0.000258,"INCLINATION":0.0186,"RA_OF_ASC_NODE":94.6722,"ARG_OF_PERICENTER":262.5565,"MEAN_ANOMALY":44.2546,"EPHEMERIS_TYPE":0,"CLASSIFICATION_TYPE":"U","NORAD_CAT_ID":36097,"ELEMENT_SET_NO":999,"REV_AT_EPOCH":5954,"BSTAR":0,"MEAN_MOTION_DOT":-2.87e-6,"MEAN_MOTION_DDOT":0},{"OBJECT_NAME":"INTELSAT 15 (IS-15)","OBJECT_ID":"2009-067A","EPOCH":"2026-03-03T16:59:38.512032","MEAN_MOTION":1.00270083,"ECCENTRICITY":0.000241,"INCLINATION":0.0183,"RA_OF_ASC_NODE":237.3842,"ARG_OF_PERICENTER":115.2063,"MEAN_ANOMALY":148.9188,"EPHEMERIS_TYPE":0,"CLASSIFICATION_TYPE":"U","NORAD_CAT_ID":36106,"ELEMENT_SET_NO":999,"REV_AT_EPOCH":4017,"BSTAR":0,"MEAN_MOTION_DOT":-1.98e-6,"MEAN_MOTION_DDOT":0},{"OBJECT_NAME":"DIRECTV 12","OBJECT_ID":"2009-075A","EPOCH":"2026-03-03T15:17:53.750688","MEAN_MOTION":1.00271974,"ECCENTRICITY":3.37e-5,"INCLINATION":0.0178,"RA_OF_ASC_NODE":330.6769,"ARG_OF_PERICENTER":39.0982,"MEAN_ANOMALY":278.3737,"EPHEMERIS_TYPE":0,"CLASSIFICATION_TYPE":"U","NORAD_CAT_ID":36131,"ELEMENT_SET_NO":999,"REV_AT_EPOCH":4549,"BSTAR":0,"MEAN_MOTION_DOT":-1.18e-6,"MEAN_MOTION_DDOT":0},{"OBJECT_NAME":"INTELSAT 16 (IS-16)","OBJECT_ID":"2010-006A","EPOCH":"2026-03-03T18:50:40.858368","MEAN_MOTION":1.00268091,"ECCENTRICITY":0.0002028,"INCLINATION":0.0244,"RA_OF_ASC_NODE":132.1539,"ARG_OF_PERICENTER":224.0062,"MEAN_ANOMALY":11.8671,"EPHEMERIS_TYPE":0,"CLASSIFICATION_TYPE":"U","NORAD_CAT_ID":36397,"ELEMENT_SET_NO":999,"REV_AT_EPOCH":5859,"BSTAR":0,"MEAN_MOTION_DOT":0,"MEAN_MOTION_DDOT":0},{"OBJECT_NAME":"XM-5","OBJECT_ID":"2010-053A","EPOCH":"2026-03-03T16:57:06.742656","MEAN_MOTION":1.00269886,"ECCENTRICITY":0.0003269,"INCLINATION":0.0687,"RA_OF_ASC_NODE":274.6796,"ARG_OF_PERICENTER":254.0787,"MEAN_ANOMALY":131.7687,"EPHEMERIS_TYPE":0,"CLASSIFICATION_TYPE":"U","NORAD_CAT_ID":37185,"ELEMENT_SET_NO":999,"REV_AT_EPOCH":5642,"BSTAR":0,"MEAN_MOTION_DOT":-3.7e-7,"MEAN_MOTION_DDOT":0},{"OBJECT_NAME":"INTELSAT 17 (IS-17)","OBJECT_ID":"2010-065B","EPOCH":"2026-03-03T18:23:26.193696","MEAN_MOTION":1.00270002,"ECCENTRICITY":0.0002414,"INCLINATION":0.0241,"RA_OF_ASC_NODE":203.3466,"ARG_OF_PERICENTER":148.0627,"MEAN_ANOMALY":151.9509,"EPHEMERIS_TYPE":0,"CLASSIFICATION_TYPE":"U","NORAD_CAT_ID":37238,"ELEMENT_SET_NO":999,"REV_AT_EPOCH":5219,"BSTAR":0,"MEAN_MOTION_DOT":-1.5e-7,"MEAN_MOTION_DDOT":0},{"OBJECT_NAME":"INTELSAT 28 (IS-28)","OBJECT_ID":"2011-016A","EPOCH":"2026-03-03T19:03:39.615264","MEAN_MOTION":1.00272709,"ECCENTRICITY":0.0004656,"INCLINATION":1.5338,"RA_OF_ASC_NODE":83.9913,"ARG_OF_PERICENTER":257.7743,"MEAN_ANOMALY":73.986,"EPHEMERIS_TYPE":0,"CLASSIFICATION_TYPE":"U","NORAD_CAT_ID":37392,"ELEMENT_SET_NO":999,"REV_AT_EPOCH":5222,"BSTAR":0,"MEAN_MOTION_DOT":-2.38e-6,"MEAN_MOTION_DDOT":0},{"OBJECT_NAME":"INTELSAT 18 (IS-18)","OBJECT_ID":"2011-056A","EPOCH":"2026-03-03T16:10:26.688864","MEAN_MOTION":1.00272848,"ECCENTRICITY":0.000202,"INCLINATION":0.0372,"RA_OF_ASC_NODE":268.0748,"ARG_OF_PERICENTER":67.5706,"MEAN_ANOMALY":248.3693,"EPHEMERIS_TYPE":0,"CLASSIFICATION_TYPE":"U","NORAD_CAT_ID":37834,"ELEMENT_SET_NO":999,"REV_AT_EPOCH":5275,"BSTAR":0,"MEAN_MOTION_DOT":3.9e-7,"MEAN_MOTION_DDOT":0},{"OBJECT_NAME":"INTELSAT 22 (IS-22)","OBJECT_ID":"2012-011A","EPOCH":"2026-03-03T18:25:16.452192","MEAN_MOTION":1.00273632,"ECCENTRICITY":0.0001576,"INCLINATION":0.0224,"RA_OF_ASC_NODE":225.513,"ARG_OF_PERICENTER":138.8705,"MEAN_ANOMALY":145.5646,"EPHEMERIS_TYPE":0,"CLASSIFICATION_TYPE":"U","NORAD_CAT_ID":38098,"ELEMENT_SET_NO":999,"REV_AT_EPOCH":613,"BSTAR":0,"MEAN_MOTION_DOT":-7.3e-7,"MEAN_MOTION_DDOT":0},{"OBJECT_NAME":"INTELSAT 19 (IS-19)","OBJECT_ID":"2012-030A","EPOCH":"2026-03-03T18:17:14.062848","MEAN_MOTION":1.00269987,"ECCENTRICITY":0.0003155,"INCLINATION":0.0252,"RA_OF_ASC_NODE":150.879,"ARG_OF_PERICENTER":208.9049,"MEAN_ANOMALY":242.0651,"EPHEMERIS_TYPE":0,"CLASSIFICATION_TYPE":"U","NORAD_CAT_ID":38356,"ELEMENT_SET_NO":999,"REV_AT_EPOCH":4939,"BSTAR":0,"MEAN_MOTION_DOT":0,"MEAN_MOTION_DDOT":0},{"OBJECT_NAME":"INTELSAT 20 (IS-20)","OBJECT_ID":"2012-043A","EPOCH":"2026-03-03T15:40:19.888608","MEAN_MOTION":1.00270147,"ECCENTRICITY":0.0002282,"INCLINATION":0.0216,"RA_OF_ASC_NODE":132.165,"ARG_OF_PERICENTER":30.5691,"MEAN_ANOMALY":302.2468,"EPHEMERIS_TYPE":0,"CLASSIFICATION_TYPE":"U","NORAD_CAT_ID":38740,"ELEMENT_SET_NO":999,"REV_AT_EPOCH":4969,"BSTAR":0,"MEAN_MOTION_DOT":-3.8e-7,"MEAN_MOTION_DDOT":0},{"OBJECT_NAME":"INTELSAT 21 (IS-21)","OBJECT_ID":"2012-045A","EPOCH":"2026-03-03T18:56:02.844384","MEAN_MOTION":1.00270898,"ECCENTRICITY":0.0001775,"INCLINATION":0.0372,"RA_OF_ASC_NODE":266.6294,"ARG_OF_PERICENTER":80.9141,"MEAN_ANOMALY":40.0089,"EPHEMERIS_TYPE":0,"CLASSIFICATION_TYPE":"U","NORAD_CAT_ID":38749,"ELEMENT_SET_NO":999,"REV_AT_EPOCH":4946,"BSTAR":0,"MEAN_MOTION_DOT":-2.99e-6,"MEAN_MOTION_DDOT":0}]
